CCSDS_OMM_VERS,COMMENT,CREATION_DATE,ORIGINATOR,OBJECT_NAME,OBJECT_ID,CENTER_NAME,REF_FRAME,TIME_SYSTEM,MEAN_ELEMENT_THEORY,EPOCH,MEAN_MOTION,ECCENTRICITY,INCLINATION,RA_OF_ASC_NODE,ARG_OF_PERICENTER,MEAN_ANOMALY,EPHEMERIS_TYPE,CLASSIFICATION_TYPE,NORAD_CAT_ID,ELEMENT_SET_NO,REV_AT_EPOCH,BSTAR,MEAN_MOTION_DOT,MEAN_MOTION_DDOT,SEMIMAJOR_AXIS,PERIOD,APOAPSIS,PERIAPSIS,OBJECT_TYPE,RCS_SIZE,COUNTRY_CODE,LAUNCH_DATE,SITE,DECAY_DATE,FILE,GP_ID,TLE_LINE0,TLE_LINE1,TLE_LINE2,NORAD_KEY,JCAT,DeepCat,Satcat,Piece,Active,Type,Name,LDate,Parent,Owner,State,SDate,ExpandedStatus,DDate,ODate,Period,Perigee,PF,Apogee,AF,Inc,IF,OpOrbit,SATCAT_KEY
3.0,GENERATED VIA SPACE-TRACK.ORG API,2026-05-06T14:56:52,18 SPCS,RADUGA 24,1989-098A,EARTH,TEME,UTC,SGP4,2026-05-06T11:35:18.430080,1.00293574,0.0003149,12.5499,334.0926,301.5054,226.0236,0,U,20367,999,13255,0.00000000000000,-0.00000335,0.0000000000000,42158.625,1435.785,35793.766,35767.214,PAYLOAD,LARGE,CIS,1989-12-15,TTMTR,,5177411,322303011,0 RADUGA 24,1 20367U 89098A   26126.48285220 -.00000335  00000-0  00000+0 0  9991,2 20367  12.5499 334.0926 0003149 301.5054 226.0236  1.00293574132550,20367,S20367,-,20367,1989-098A,P,P,Raduga,1989 Dec 15,S20370,VVKOV,SU,1989 Dec 15 1807?,In Earth orbit,-,2026 May  4 ,    1435.775 ,   35767, ,   35793, , 12.55 , ,GEO/I,20367
3.0,GENERATED VIA SPACE-TRACK.ORG API,2026-05-06T14:56:52,18 SPCS,SBS 6,1990-091A,EARTH,TEME,UTC,SGP4,2026-05-06T11:48:15.039072,0.98992944,0.000475,12.5778,29.1248,133.7487,359.1112,0,U,20872,999,4568,0.00000000000000,-0.00000211,0.0000000000000,42527.091,1454.649,36169.157,36128.756,PAYLOAD,LARGE,US,1990-10-12,FRGUI,,5177426,322303698,0 SBS 6,1 20872U 90091A   26126.49184073 -.00000211  00000-0  00000+0 0  9995,2 20872  12.5778  29.1248 0004750 133.7487 359.1112  0.98992944 45685,20872,S20872,-,20872,1990-091A,P,P,SBS 6,1990 Oct 12,S20875,SESINTU,US,1990 Oct 12 2319,In Earth orbit,-,2026 May  4 ,    1454.636 ,   36128, ,   36168, , 12.57 , ,GEO/ID,20872
3.0,GENERATED VIA SPACE-TRACK.ORG API,2026-05-06T10:08:52,18 SPCS,APSTAR 1A,1996-039A,EARTH,TEME,UTC,SGP4,2026-05-06T04:12:43.117056,0.99189752,0.0022204,12.615,20.3099,348.6253,200.5751,0,U,23943,999,4222,0.00000000000000,-0.00000116,0.0000000000000,42470.819,1451.763,36186.986,35998.382,PAYLOAD,LARGE,PRC,1996-07-03,XSC,,5176958,322265171,0 APSTAR 1A,1 23943U 96039A   26126.17549904 -.00000116  00000-0  00000-0 0  9993,2 23943  12.6150  20.3099 0022204 348.6253 200.5751  0.99189752 42222,23943,S23943,-,23943,1996-039A,P,P,Zhongxing 5D,1996 Jul  3,S23944,CHISAE,CN,1996 Jul  3 1112?,In Earth orbit,-,2026 May  5 ,    1451.758 ,   35998, ,   36186, , 12.61 , ,GEO/ID,23943
3.0,GENERATED VIA SPACE-TRACK.ORG API,2026-05-06T07:56:53,18 SPCS,BRAZILSAT B1,1994-049A,EARTH,TEME,UTC,SGP4,2026-05-05T20:16:48.724032,0.99246069,0.000284,12.6462,26.9893,205.4069,349.4512,0,U,23199,999,4578,0.00000000000000,0.00000086,0.0000000000000,42454.751,1450.939,36088.673,36064.559,PAYLOAD,LARGE,BRAZ,1994-08-10,FRGUI,,5176693,322253056,0 BRAZILSAT B1,1 23199U 94049A   26125.84500838  .00000086  00000-0  00000+0 0  9995,2 23199  12.6462  26.9893 0002840 205.4069 349.4512  0.99246069 45781,23199,S23199,-,23199,1994-049A,P,P,Star One B1,1994 Aug 10,S23201,STONE,BR,1994 Aug 10 2325,In Earth orbit,-,2026 May  4 ,    1450.944 ,   36064, ,   36088, , 12.64 , ,GEO/ID,23199
3.0,GENERATED VIA SPACE-TRACK.ORG API,2026-05-06T14:46:56,18 SPCS,WESTAR 4,1982-014A,EARTH,TEME,UTC,SGP4,2026-05-06T08:56:23.466912,0.99769575,0.0004021,12.6809,335.2605,317.4719,284.2631,0,U,13069,999,4602,0.00000000000000,0.00000101,0.0000000000000,42306.11,1443.326,35944.986,35910.964,PAYLOAD,LARGE,US,1982-02-26,AFETR,,5177242,322299889,0 WESTAR 4,1 13069U 82014A   26126.37249383  .00000101  00000-0  00000+0 0  9991,2 13069  12.6809 335.2605 0004021 317.4719 284.2631  0.99769575 46025,13069,S13069,-,13069,1982-014A,P,P,Westar 4,1982 Feb 26,S13136,WUTC,US,1982 Feb 26 0028,In Earth orbit,-,2026 May  5 ,    1443.332 ,   35910, ,   35945, , 12.68 , ,GEO/ID,13069
3.0,GENERATED VIA SPACE-TRACK.ORG API,2026-05-06T14:56:52,18 SPCS,GALAXY 4R,2000-020A,EARTH,TEME,UTC,SGP4,2026-05-06T11:55:05.298240,0.99838475,0.0003838,12.6918,24.3746,241.2422,338.2021,0,U,26298,999,9520,0.00000000000000,0.00000081,0.0000000000000,42286.644,1442.33,35924.738,35892.279,PAYLOAD,LARGE,US,2000-04-19,FRGUI,,5177589,322307293,0 GALAXY 4R,1 26298U 00020A   26126.49658910  .00000081  00000-0  00000+0 0  9996,2 26298  12.6918  24.3746 0003838 241.2422 338.2021  0.99838475 95209,26298,S26298,-,26298,2000-020A,P,P,Galaxy 4R,2000 Apr 19,S26299,SESINTU,US,2000 Apr 19 0050,In Earth orbit,-,2026 May  4 ,    1442.343 ,   35892, ,   35925, , 12.69 , ,GEO/ID,26298
3.0,GENERATED VIA SPACE-TRACK.ORG API,2026-05-06T14:56:52,18 SPCS,COSMOS 2085,1990-061A,EARTH,TEME,UTC,SGP4,2026-05-06T13:40:29.461152,1.00264289,0.0014095,12.7108,336.7894,30.6697,133.5531,0,U,20693,999,13108,0.00000000000000,-0.00000067,0.0000000000000,42166.833,1436.204,35848.133,35729.264,PAYLOAD,LARGE,CIS,1990-07-18,TTMTR,,5177420,322303619,0 COSMOS 2085,1 20693U 90061A   26126.56978543 -.00000067  00000-0  00000+0 0  9993,2 20693  12.7108 336.7894 0014095  30.6697 133.5531  1.00264289131087,20693,S20693,-,20693,1990-061A,P,P,Kosmos-2085,1990 Jul 18,S20696,VVKOV,SU,1990 Jul 19 0425?,In Earth orbit,-,2026 May  5 ,    1436.206 ,   35729, ,   35848, , 12.71 , ,GEO/I,20693
3.0,GENERATED VIA SPACE-TRACK.ORG API,2026-05-06T14:56:52,18 SPCS,GORIZONT 20,1990-054A,EARTH,TEME,UTC,SGP4,2026-05-06T13:40:29.493120,1.0032106,0.0005895,12.7225,336.3639,246.5027,276.706,0,U,20659,999,13127,0.00000000000000,-0.00000066,0.0000000000000,42150.924,1435.392,35797.637,35747.941,PAYLOAD,LARGE,CIS,1990-06-20,TTMTR,,5177419,322303607,0 GORIZONT 20,1 20659U 90054A   26126.56978580 -.00000066  00000-0  00000+0 0  9997,2 20659  12.7225 336.3639 0005895 246.5027 276.7060  1.00321060131274,20659,S20659,-,20659,1990-054A,P,P,Gorizont,1990 Jun 20,S20662,KS,SU,1990 Jun 21 0613?,In Earth orbit,-,2026 May  5 ,    1435.394 ,   35747, ,   35797, , 12.72 , ,GEO/ID,20659
3.0,GENERATED VIA SPACE-TRACK.ORG API,2026-05-06T14:56:52,18 SPCS,NSTAR B,1996-007A,EARTH,TEME,UTC,SGP4,2026-05-06T12:02:23.574336,0.99263604,0.0010617,12.7239,26.1399,308.5058,209.2153,0,U,23781,999,11003,0.00000000000000,-0.00000311,0.0000000000000,42449.751,1450.683,36116.685,36026.547,PAYLOAD,LARGE,JPN,1996-02-05,FRGUI,,5177520,322306366,0 NSTAR B,1 23781U 96007A   26126.50166174 -.00000311  00000-0  00000+0 0  9995,2 23781  12.7239  26.1399 0010617 308.5058 209.2153  0.99263604110037,23781,S23781,-,23781,1996-007A,P,P,N-Star b,1996 Feb  5,S23782,NTT,J,1996 Feb  5 0740,In Earth orbit,-,2026 May  4 ,    1450.673 ,   36025, ,   36117, , 12.72 , ,GEO/ID,23781
3.0,GENERATED VIA SPACE-TRACK.ORG API,2026-05-06T14:56:52,18 SPCS,FLTSATCOM 7 (USA 20),1986-096A,EARTH,TEME,UTC,SGP4,2026-05-06T11:41:51.434304,0.98927829,0.0042031,12.7352,340.3517,330.8033,200.5943,0,U,17181,999,15155,0.00000000000000,-0.00000158,0.0000000000000,42545.751,1455.607,36346.44,35988.791,PAYLOAD,LARGE,US,1986-12-05,AFETR,,5177382,322302157,0 FLTSATCOM 7 (USA 20),1 17181U 86096A   26126.48740086 -.00000158  00000-0  00000+0 0  9995,2 17181  12.7352 340.3517 0042031 330.8033 200.5943  0.98927829151557,17181,S17181,-,17181,1986-096A,P,P,FLTSATCOM F7,1986 Dec  5,S17182,SPAWAR/SFSSC,US,1986 Dec  5 0257,In Earth orbit,-,2026 May  5 ,    1455.596 ,   35988, ,   36346, , 12.74 , ,GEO/ID,17181
3.0,GENERATED VIA SPACE-TRACK.ORG API,2026-05-06T14:46:56,18 SPCS,GORIZONT 22,1990-102A,EARTH,TEME,UTC,SGP4,2026-05-06T10:23:11.131872,1.00278144,0.0004776,12.7646,337.5358,348.4644,194.6248,0,U,20953,999,12995,0.00000000000000,-0.00000286,0.0000000000000,42162.949,1436.006,35804.951,35764.677,PAYLOAD,LARGE,CIS,1990-11-23,TTMTR,,5177320,322301816,0 GORIZONT 22,1 20953U 90102A   26126.43276773 -.00000286  00000-0  00000+0 0  9993,2 20953  12.7646 337.5358 0004776 348.4644 194.6248  1.00278144129955,20953,S20953,-,20953,1990-102A,P,P,Gorizont,1990 Nov 23,S21046,KS,SU,1990 Nov 23 1959?,In Earth orbit,-,2026 May  4 ,    1435.999 ,   35764, ,   35804, , 12.77 , ,GEO/I,20953
3.0,GENERATED VIA SPACE-TRACK.ORG API,2026-05-06T14:56:52,18 SPCS,RADUGA 1-1,1989-048A,EARTH,TEME,UTC,SGP4,2026-05-06T06:25:56.756928,0.98709269,0.0018075,12.7698,335.4992,147.996,226.734,0,U,20083,999,13086,0.00000000000000,-0.00000063,0.0000000000000,42608.53,1458.83,36307.41,36153.38,PAYLOAD,LARGE,CIS,1989-06-21,TTMTR,,5177405,322303427,0 RADUGA 1-1,1 20083U 89048A   26126.26801802 -.00000063  00000-0  00000+0 0  9995,2 20083  12.7698 335.4992 0018075 147.9960 226.7340  0.98709269130862,20083,S20083,-,20083,1989-048A,P,P,Raduga-1,1989 Jun 21,S20086,VVKOV,SU,1989 Jun 22 0619?,In Earth orbit,-,2026 May  5 ,    1458.837 ,   36153, ,   36307, , 12.77 , ,GEO/ID,20083
3.0,GENERATED VIA SPACE-TRACK.ORG API,2026-05-06T02:32:52,18 SPCS,INMARSAT 2-F2,1991-018A,EARTH,TEME,UTC,SGP4,2026-05-05T21:21:14.170176,0.98721361,0.00045715,12.7713,9.5078,308.6771,299.6792,0,U,21149,999,4303,0.00000000000000,0.00000030,0.0000000000000,42605.05,1458.651,36246.392,36207.438,PAYLOAD,LARGE,IM,1991-03-08,AFETR,,5176277,322214400,0 INMARSAT 2-F2,1 21149U 91018A   26125.88974734  .00000030  00000-0  00000-0 0  9995,2 21149  12.7713   9.5078 0004572 308.6771 299.6792  0.98721361 43030,21149,S21149,-,21149,1991-018A,P,P,INMARSAT II F-2,1991 Mar  8,S21151,INMRV,UK,1991 Mar  9 2348?,In Earth orbit,-,2026 May  3 ,    1458.647 ,   36207, ,   36246, , 12.77 , ,GEO/ID,21149
